NORAD_CAT_ID,OBJECT_NAME,OBJECT_TYPE,EPOCH,MEAN_MOTION,ECCENTRICITY,INCLINATION,RA_OF_ASC_NODE,ARG_OF_PERICENTER,MEAN_ANOMALY,BSTAR,MEAN_MOTION_DOT,MEAN_MOTION_DDOT,TLE_LINE0,TLE_LINE1,TLE_LINE2,SEMIMAJOR_AXIS,PERIOD,APOGEE,PERIGEE,DECAYED
54805.0,STARLINK-5417,PAYLOAD,2023-02-14 14:00:01,15.49903459,0.000119,53.2149,16.4212,95.4354,260.2902,-0.00066051,-0.00037782,0.0,0 STARLINK-5417,1 54805U 22175AZ  23045.58334491 -.00037782  00000-0 -66051-3 0  9990,2 54805  53.2149  16.4212 0001190  95.4354 260.2902 15.49903459  8979,6795.145,92.909,417.819,416.202,0.0
54805.0,STARLINK-5417,PAYLOAD,2023-02-14 20:00:01,15.49864217,0.0001266,53.2149,15.2253,103.7711,207.6529,0.00080042,0.00045206,0.0,0 STARLINK-5417,1 54805U 22175AZ  23045.83334491  .00045206  00000-0  80042-3 0  9992,2 54805  53.2149  15.2253 0001266 103.7711 207.6529 15.49864217  1303,6795.26,92.911,417.985,416.265,0.0
54805.0,STARLINK-5417,PAYLOAD,2023-02-17 02:22:01,15.50255443,0.000138,53.2171,4.3956,349.8497,10.2485,0.00076772,0.00043942,0.0,0 STARLINK-5417,1 54805U 22175AZ  23048.09862548  .00043942  00000-0  76772-3 0  9992,2 54805  53.2171   4.3956 0001380 349.8497  10.2485 15.50255443  9368,6794.117,92.888,416.919,415.044,0.0
54805.0,STARLINK-5417,PAYLOAD,2023-02-17 10:07:28,15.49448886,8.14e-05,53.2164,2.8587,83.79,276.3202,-0.00099401,-0.00055607,0.0,0 STARLINK-5417,1 54805U 22175AZ  23048.42185769 -.00055607  00000-0 -99401-3 0  9999,2 54805  53.2164   2.8587 0000814  83.7900 276.3202 15.49448886  9418,6796.474,92.936,418.892,417.786,0.0
54805.0,STARLINK-5417,PAYLOAD,2023-02-17 22:31:04,15.49063798,6.32e-05,53.2164,0.3952,34.181,325.924,-0.0017368,-0.00095046,0.0,0 STARLINK-5417,1 54805U 22175AZ  23048.93824741 -.00095046  00000-0 -17368-2 0  9997,2 54805  53.2164   0.3952 0000632  34.1810 325.9240 15.49063798 11652,6797.601,92.959,419.895,419.036,0.0
54805.0,STARLINK-5417,PAYLOAD,2023-02-18 06:16:22,15.48464287,0.0001296,53.2167,358.8575,93.3633,266.7525,-0.0030223,-0.00160308,0.0,0 STARLINK-5417,1 54805U 22175AZ  23049.26136686 -.00160308  00000-0 -30223-2 0  9997,2 54805  53.2167 358.8575 0001296  93.3633 266.7525 15.48464287  9544,6799.355,92.995,422.101,420.339,0.0
54805.0,STARLINK-5417,PAYLOAD,2023-02-18 14:00:01,15.46763304,0.0001159,53.2152,357.3205,89.5441,268.2023,-0.019393,-0.00908147,0.0,0 STARLINK-5417,1 54805U 22175AZ  23049.58334491 -.00908147  00000-0 -19393-1 0  9991,2 54805  53.2152 357.3205 0001159  89.5441 268.2023 15.46763304  9599,6804.339,93.098,426.992,425.415,0.0
54805.0,STARLINK-5417,PAYLOAD,2023-02-19 14:00:01,15.44804196,0.0001353,53.2152,352.5704,88.6463,77.0885,-0.020374,-0.00892956,0.0,0 STARLINK-5417,1 54805U 22175AZ  23050.58334491 -.00892956  00000-0 -20374-1 0  9994,2 54805  53.2152 352.5704 0001353  88.6463  77.0885 15.44804196  1306,6810.09,93.216,432.877,431.034,0.0
54805.0,STARLINK-5417,PAYLOAD,2023-02-19 18:00:02,15.44482211,0.0001202,53.2149,351.7796,95.0414,278.066,-0.020449,-0.00886885,0.0,0 STARLINK-5417,1 54805U 22175AZ  23050.75002315 -.00886885  00000-0 -20449-1 0  9997,2 54805  53.2149 351.7796 0001202  95.0414 278.0660 15.44482211  9778,6811.037,93.235,433.721,432.083,0.0
54805.0,STARLINK-5417,PAYLOAD,2023-02-20 10:00:00,15.43221188,0.0001341,53.2144,348.6239,83.3529,36.9768,-0.023358,-0.00963448,0.0,0 STARLINK-5417,1 54805U 22175AZ  23051.41667824 -.00963448  00000-0 -23358-1 0  9996,2 54805  53.2144 348.6239 0001341  83.3529  36.9768 15.43221188  9875,6814.747,93.311,437.526,435.698,0.0
54805.0,STARLINK-5417,PAYLOAD,2023-02-20 14:00:01,15.4284905,0.0001253,53.2146,347.8347,99.4696,227.2136,-0.021672,-0.00888941,0.0,0 STARLINK-5417,1 54805U 22175AZ  23051.58334491 -.00888941  00000-0 -21672-1 0  9996,2 54805  53.2146 347.8347 0001253  99.4696 227.2136 15.42849050  1300,6815.843,93.334,438.562,436.854,0.0
54805.0,STARLINK-5417,PAYLOAD,2023-02-21 02:00:01,15.41880619,0.0001426,53.2144,345.4732,93.5458,130.9674,-0.022813,-0.00904378,0.0,0 STARLINK-5417,1 54805U 22175AZ  23052.08334491 -.00904378  00000-0 -22813-1 0  9993,2 54805  53.2144 345.4732 0001426  93.5458 130.9674 15.41880619  9976,6818.696,93.392,441.534,439.589,0.0
54805.0,STARLINK-5417,PAYLOAD,2023-02-21 14:00:01,15.40891741,0.0001328,53.2144,343.1128,94.131,26.4605,-0.022917,-0.00880838,0.0,0 STARLINK-5417,1 54805U 22175AZ  23052.58334491 -.00880838  00000-0 -22917-1 0  9997,2 54805  53.2144 343.1128 0001328  94.1310  26.4605 15.40891741  1304,6821.613,93.452,444.384,442.572,0.0
54805.0,STARLINK-5417,PAYLOAD,2023-02-21 22:00:00,15.40278693,0.0001416,53.2146,341.5422,91.0123,79.303,-0.025153,-0.0094176,0.0,0 STARLINK-5417,1 54805U 22175AZ  23052.91667824 -.00941760  00000-0 -25153-1 0  9990,2 54805  53.2146 341.5422 0001416  91.0123  79.3030 15.40278693 10103,6823.423,93.49,446.254,444.322,0.0
54805.0,STARLINK-5417,PAYLOAD,2023-02-22 00:00:00,15.40099916,0.000135,53.2144,341.1503,90.0918,182.542,-0.024663,-0.00919851,0.0,0 STARLINK-5417,1 54805U 22175AZ  23053.00001157 -.00919851  00000-0 -24663-1 0  9993,2 54805  53.2144 341.1503 0001350  90.0918 182.5420 15.40099916  1306,6823.951,93.5,446.737,444.895,0.0
54805.0,STARLINK-5417,PAYLOAD,2023-02-22 14:00:01,15.38939098,0.0001325,53.2147,338.4047,92.7766,174.6812,-0.02442,-0.0087982,0.0,0 STARLINK-5417,1 54805U 22175AZ  23053.58334491 -.00879820  00000-0 -24420-1 0  9998,2 54805  53.2147 338.4047 0001325  92.7766 174.6812 15.38939098  1301,6827.382,93.571,450.152,448.343,0.0
54805.0,STARLINK-5417,PAYLOAD,2023-02-22 22:00:00,15.38325024,0.0001309,53.2148,336.839,92.5066,222.3288,-0.026852,-0.0094242,0.0,0 STARLINK-5417,1 54805U 22175AZ  23053.91667824 -.00942420  00000-0 -26852-1 0  9992,2 54805  53.2148 336.8390 0001309  92.5066 222.3288 15.38325024 10269,6829.199,93.608,451.958,450.17,0.0
54805.0,STARLINK-5417,PAYLOAD,2023-02-23 14:00:01,15.3698517,0.000127,53.2149,333.7104,87.6321,319.6514,-0.025982,-0.00878208,0.0,0 STARLINK-5417,1 54805U 22175AZ  23054.58334491 -.00878208  00000-0 -25982-1 0  9992,2 54805  53.2149 333.7104 0001270  87.6321 319.6514 15.36985170  1304,6833.167,93.69,455.9,454.165,0.0
54805.0,STARLINK-5417,PAYLOAD,2023-02-23 16:00:00,15.3682913,0.0001402,53.2147,333.3196,89.42,59.1937,-0.026324,-0.00884735,0.0,0 STARLINK-5417,1 54805U 22175AZ  23054.66667824 -.00884735  00000-0 -26324-1 0  9993,2 54805  53.2147 333.3196 0001402  89.4200  59.1937 15.36829130 10377,6833.63,93.699,456.453,454.537,0.0
54805.0,STARLINK-5417,PAYLOAD,2023-02-23 22:00:00,15.36369659,0.0001368,53.215,332.1495,83.9061,8.4096,-0.028572,-0.00940956,0.0,0 STARLINK-5417,1 54805U 22175AZ  23054.91667824 -.00940956  00000-0 -28572-1 0  9996,2 54805  53.2150 332.1495 0001368  83.9061   8.4096 15.36369659  1306,6834.992,93.727,457.792,455.922,0.0
54805.0,STARLINK-5417,PAYLOAD,2023-02-24 10:00:00,15.35402539,0.0001298,53.2148,329.81,84.8391,253.5722,-0.029954,-0.00954818,0.0,0 STARLINK-5417,1 54805U 22175AZ  23055.41667824 -.00954818  00000-0 -29954-1 0  9999,2 54805  53.2148 329.8100 0001298  84.8391 253.5722 15.35402539 10490,6837.862,93.786,460.615,458.84,0.0
54805.0,STARLINK-5417,PAYLOAD,2023-02-24 14:00:01,15.35032267,0.0001438,53.2148,329.03,87.7715,92.2964,-0.027625,-0.00876771,0.0,0 STARLINK-5417,1 54805U 22175AZ  23055.58334491 -.00876771  00000-0 -27625-1 0  9992,2 54805  53.2148 329.0300 0001438  87.7715  92.2964 15.35032267  1305,6838.962,93.809,461.81,459.843,0.0
54805.0,STARLINK-5417,PAYLOAD,2023-02-24 22:00:00,15.34413105,0.0001481,53.2148,327.474,86.8496,135.9052,-0.030198,-0.00934381,0.0,0 STARLINK-5417,1 54805U 22175AZ  23055.91667824 -.00934381  00000-0 -30198-1 0  9999,2 54805  53.2148 327.4740 0001481  86.8496 135.9052 15.34413105  1305,6840.801,93.847,463.679,461.653,0.0
54805.0,STARLINK-5417,PAYLOAD,2023-02-25 02:00:01,15.34062337,0.000139,53.2148,326.6969,76.494,347.3216,-0.028916,-0.00888649,0.0,0 STARLINK-5417,1 54805U 22175AZ  23056.08334491 -.00888649  00000-0 -28916-1 0  9999,2 54805  53.2148 326.6969 0001390  76.4940 347.3216 15.34062337 10596,6841.844,93.868,464.66,462.758,0.0
54805.0,STARLINK-5417,PAYLOAD,2023-02-25 14:00:01,15.33077276,0.0001314,53.2145,324.3635,91.673,214.1402,-0.02925,-0.00872521,0.0,0 STARLINK-5417,1 54805U 22175AZ  23056.58334491 -.00872521  00000-0 -29250-1 0  9998,2 54805  53.2145 324.3635 0001314  91.6730 214.1402 15.33077276  1304,6844.774,93.929,467.539,465.74,0.0
54805.0,STARLINK-5417,PAYLOAD,2023-02-25 22:00:00,15.32462289,0.0001342,53.2144,322.8122,85.7536,260.398,-0.032268,-0.00938,0.0,0 STARLINK-5417,1 54805U 22175AZ  23056.91667824 -.00938000  00000-0 -32268-1 0  9992,2 54805  53.2144 322.8122 0001342  85.7536 260.3980 15.32462289 10727,6846.606,93.966,469.389,467.552,0.0
54805.0,STARLINK-5417,PAYLOAD,2023-02-26 14:00:01,15.3112692,0.0001245,53.2139,319.7108,85.5412,338.9749,-0.031233,-0.00875823,0.0,0 STARLINK-5417,1 54805U 22175AZ  23057.58334491 -.00875823  00000-0 -31233-1 0  9991,2 54805  53.2139 319.7108 0001245  85.5412 338.9749 15.31126920  1300,6850.586,94.048,473.304,471.598,0.0
54805.0,STARLINK-5417,PAYLOAD,2023-02-26 22:00:00,15.30505821,0.0001423,53.2138,318.1643,81.5513,20.9597,-0.034162,-0.00946135,0.0,0 STARLINK-5417,1 54805U 22175AZ  23057.91667824 -.00946135  00000-0 -34162-1 0  9996,2 54805  53.2138 318.1643 0001423  81.5513  20.9597 15.30505821 10873,6852.439,94.087,475.279,473.329,0.0
54805.0,STARLINK-5417,PAYLOAD,2023-02-27 00:00:00,15.3032433,0.0001494,53.2137,317.778,83.026,118.8683,-0.033026,-0.00900989,0.0,0 STARLINK-5417,1 54805U 22175AZ  23058.00001157 -.00900989  00000-0 -33026-1 0  9993,2 54805  53.2137 317.7780 0001494  83.0260 118.8683 15.30324330  1308,6852.981,94.098,475.87,473.822,0.0
54805.0,STARLINK-5417,PAYLOAD,2023-02-27 14:00:01,15.29179541,0.0001393,53.2132,315.0721,90.7745,85.4022,-0.033517,-0.00883892,0.0,0 STARLINK-5417,1 54805U 22175AZ  23058.58334491 -.00883892  00000-0 -33517-1 0  9994,2 54805  53.2132 315.0721 0001393  90.7745  85.4022 15.29179541  1306,6856.401,94.168,479.221,477.311,0.0
